ONEWEB-0309             
1 49095U 21075W   26159.12855377 -.00000021  00000+0 -88354-4 0  9999
2 49095  87.9142   7.6652 0001745 102.3714 257.7613 13.17647607232382
ONEWEB-0310             
1 49096U 21075X   26159.08714876 -.00000020  00000+0 -89894-4 0  9992
2 49096  87.8941 352.4909 0001781  89.7650 270.3682 13.12442108233991
ONEWEB-0311             
1 49097U 21075Y   26159.13532022  .00000127  00000+0  29277-3 0  9994
2 49097  87.9139   7.6630 0002313  85.1618 274.9778 13.17649573232432
ONEWEB-0312             
1 49098U 21075Z   26158.84675955 -.00000063  00000+0 -19638-3 0  9996
2 49098  87.9140   7.7321 0002057  93.4513 266.6854 13.17647376232379
ONEWEB-0313             
1 49099U 21075AA  26159.00354314  .00000012  00000+0 -18878-5 0  9999
2 49099  87.9136   7.7068 0002017  86.9991 273.1372 13.17647931232382
ONEWEB-0314             
1 49100U 21075AB  26159.12181820  .00000007  00000+0 -14509-4 0  9995
2 49100  87.9150   7.6544 0002165  94.1700 265.9679 13.17648655232374
ONEWEB-0315             
1 49101U 21075AC  26159.06005079  .00000572  00000+0  15558-2 0  9999
2 49101  87.8951 352.4600 0002073  82.8635 277.2729 13.12444193233971
ONEWEB-0316             
1 49102U 21075AD  26159.20539194  .00000007  00000+0 -15992-4 0  9994
2 49102  87.9158 337.2440 0001929  90.5865 269.5488 13.18686535236024
ONEWEB-0317             
1 49103U 21075AE  26159.06344047  .00000469  00000+0  12685-2 0  9995
2 49103  87.8950 352.4829 0001228 106.1694 253.9570 13.12443214233991
ONEWEB-0318             
1 49104U 21075AF  26159.20201704  .00000033  00000+0  49900-4 0  9993
2 49104  87.9167 337.2453 0002041  87.1943 272.9422 13.18685794235981
ONEWEB-0319             
1 49105U 21075AG  26159.13699757  .00000035  00000+0  57865-4 0  9996
2 49105  87.9138   7.6683 0002348  80.0158 280.1239 13.17648433232413
ONEWEB-0323             
1 49106U 21075AH  26159.04480034  .00000048  00000+0  99109-4 0  9994
2 49106  87.8950 352.4679 0002376  86.3087 273.8313 13.12444531233356
ONEWEB-0329             
1 49107U 21075AJ  26159.14543520 -.00000033  00000+0 -11871-3 0  9991
2 49107  87.9141   7.6680 0002004  89.2345 270.9016 13.17647874232399
ONEWEB-0330             
1 49108U 21075AK  26159.09327400  .00000115  00000+0  26192-3 0  9994
2 49108  87.9142   7.6982 0001934  94.0000 266.1353 13.17648845232423
ONEWEB-0292             
1 49186U 21083A   26159.17659840 -.00000325  00000+0 -92367-3 0  9996
2 49186  87.8939 322.0339 0001997  91.4394 268.6964 13.13469528229749
ONEWEB-0303             
1 49187U 21083B   26159.19864787  .00000152  00000+0  35291-3 0  9996
2 49187  87.9161 337.2452 0001998  89.1822 270.9539 13.18686593228799
ONEWEB-0306             
1 49188U 21083C   26159.03677504 -.00000043  00000+0 -14278-3 0  9992
2 49188  87.9168 337.2649 0001657  95.3883 264.7438 13.18686926228815
ONEWEB-0307             
1 49189U 21083D   26159.17067748 -.00000267  00000+0 -76508-3 0  9993
2 49189  87.8949 322.0315 0001937  94.4262 265.7089 13.13469286229745
ONEWEB-0320             
1 49190U 21083E   26159.20875090  .00000024  00000+0  29132-4 0  9997
2 49190  87.9157 337.2498 0001811  91.5627 268.5713 13.18685292228794
ONEWEB-0321             
1 49191U 21083F   26158.88296540  .00000010  00000+0 -65366-5 0  9994
2 49191  87.9190 276.2894 0001702 104.8488 255.2834 13.20771597235608
ONEWEB-0322             
1 49192U 21083G   26159.16644209 -.00000267  00000+0 -76720-3 0  9995
2 49192  87.8946 322.0323 0001380  91.7307 268.3980 13.13469626229733
ONEWEB-0324             
1 49193U 21083H   26159.03001515  .00000015  00000+0  55012-5 0  9991
2 49193  87.9169 337.2716 0001886  97.0180 263.1167 13.18684223228797
ONEWEB-0325             
1 49194U 21083J   26158.95751892  .00000032  00000+0  48617-4 0  9993
2 49194  87.9160 337.2953 0001838  88.7039 271.4303 13.18685140228792
ONEWEB-0326             
1 49195U 21083K   26159.20046201 -.00000007  00000+0 -49533-4 0  9996
2 49195  87.9167 337.2439 0002071  86.2756 273.8613 13.18684679228817
ONEWEB-0327             
1 49196U 21083L   26159.20017949  .00000016  00000+0  73351-5 0  9998
2 49196  87.9159 337.2489 0002092  81.3035 278.8334 13.18687665228838
ONEWEB-0328             
1 49197U 21083M   26159.15628596 -.00000038  00000+0 -13921-3 0  9990
2 49197  87.8958 322.0069 0001877  98.6636 261.4706 13.13469025229711
ONEWEB-0331             
1 49198U 21083N   26159.04183444 -.00000070  00000+0 -20919-3 0  9998
2 49198  87.9168 337.2691 0002169  88.7313 271.4067 13.18685635228804
ONEWEB-0333             
1 49199U 21083P   26159.15120647  .00000088  00000+0  20539-3 0  9992
2 49199  87.8946 322.0351 0001796  92.3199 267.8136 13.13469158229724
ONEWEB-0334             
1 49200U 21083Q   26158.74911969  .00000108  00000+0  23456-3 0  9998
2 49200  87.9188 276.3281 0000998 107.2974 252.8269 13.20772694235547
ONEWEB-0335             
1 49201U 21083R   26159.14613561  .00000212  00000+0  54671-3 0  9990
2 49201  87.8948 322.0330 0002003  93.2859 266.8499 13.13469859229732
